[{"OBJECT_NAME":"TK-2","OBJECT_ID":"2022-031A","EPOCH":"2026-03-09T22:51:17.143200","MEAN_MOTION":15.02943491,"ECCENTRICITY":0.00164117,"INCLINATION":97.8366,"RA_OF_ASC_NODE":263.9365,"ARG_OF_PERICENTER":100.3205,"MEAN_ANOMALY":259.9871,"EPHEMERIS_TYPE":0,"CLASSIFICATION_TYPE":"U","NORAD_CAT_ID":52150,"ELEMENT_SET_NO":999,"REV_AT_EPOCH":21555,"BSTAR":0.00040164474,"MEAN_MOTION_DOT":5.349e-5,"MEAN_MOTION_DDOT":0},{"OBJECT_NAME":"STARLINK-6237","OBJECT_ID":"2023-088H","EPOCH":"2026-03-09T19:03:49.589280","MEAN_MOTION":15.02545987,"ECCENTRICITY":9.433e-5,"INCLINATION":43.0032,"RA_OF_ASC_NODE":107.0624,"ARG_OF_PERICENTER":278.2921,"MEAN_ANOMALY":81.7814,"EPHEMERIS_TYPE":0,"CLASSIFICATION_TYPE":"U","NORAD_CAT_ID":57055,"ELEMENT_SET_NO":999,"REV_AT_EPOCH":15038,"BSTAR":1.7184855e-5,"MEAN_MOTION_DOT":2.9e-7,"MEAN_MOTION_DDOT":0}]
